AUTCUBE 2               
1 43681U 18084K   26068.48152820  .00005282  00000+0  33524-3 0  9991
2 43681  98.0799 269.3640 0009685  28.2406 331.9345 15.09319394401889
STARLINK-3896           
1 52456U 22049F   26068.23450031 -.00002938  00000+0 -16661-3 0  9995
2 52456  53.2162  71.1643 0001340  88.6159 271.4987 15.08830227212043
